[{"OBJECT_NAME":"STARLINK-32406","OBJECT_ID":"2024-184P","EPOCH":"2026-03-09T05:14:52.855584","MEAN_MOTION":15.3019186,"ECCENTRICITY":0.00010421,"INCLINATION":53.1609,"RA_OF_ASC_NODE":16.2206,"ARG_OF_PERICENTER":108.6313,"MEAN_ANOMALY":251.4801,"EPHEMERIS_TYPE":0,"CLASSIFICATION_TYPE":"U","NORAD_CAT_ID":61545,"ELEMENT_SET_NO":999,"REV_AT_EPOCH":7843,"BSTAR":-1.1875451e-5,"MEAN_MOTION_DOT":-7.11e-6,"MEAN_MOTION_DDOT":0},{"OBJECT_NAME":"SCS-01 D","OBJECT_ID":"2025-100D","EPOCH":"2026-03-09T18:08:45.040704","MEAN_MOTION":15.31902149,"ECCENTRICITY":0.00063457,"INCLINATION":97.373,"RA_OF_ASC_NODE":145.4097,"ARG_OF_PERICENTER":266.2302,"MEAN_ANOMALY":93.8214,"EPHEMERIS_TYPE":0,"CLASSIFICATION_TYPE":"U","NORAD_CAT_ID":63985,"ELEMENT_SET_NO":999,"REV_AT_EPOCH":4562,"BSTAR":0.0010528181,"MEAN_MOTION_DOT":0.00032471,"MEAN_MOTION_DDOT":0}]
