STARLINK-32406          
1 61545U 24184P   26068.21866731 -.00000711  00000+0 -11875-4 0  9992
2 61545  53.1609  16.2206 0001042 108.6313 251.4801 15.30191860 78430
SCS-01 D                
1 63985U 25100D   26068.75607686  .00032471  00000+0  10528-2 0  9990
2 63985  97.3730 145.4097 0006346 266.2302  93.8214 15.31902149 45621
